[{"OBJECT_NAME":"PATHFINDER 1","OBJECT_ID":"2016-059E","EPOCH":"2026-03-09T22:26:32.347968","MEAN_MOTION":14.67518797,"ECCENTRICITY":0.00289613,"INCLINATION":97.8179,"RA_OF_ASC_NODE":72.6978,"ARG_OF_PERICENTER":160.0111,"MEAN_ANOMALY":200.2236,"EPHEMERIS_TYPE":0,"CLASSIFICATION_TYPE":"U","NORAD_CAT_ID":41787,"ELEMENT_SET_NO":999,"REV_AT_EPOCH":50515,"BSTAR":0.00018125608,"MEAN_MOTION_DOT":9.87e-6,"MEAN_MOTION_DDOT":0},{"OBJECT_NAME":"FENGYUN 1C DEB","OBJECT_ID":"1999-025DTZ","EPOCH":"2026-03-02T10:55:05.521728","MEAN_MOTION":14.62562978,"ECCENTRICITY":0.0035129,"INCLINATION":99.378,"RA_OF_ASC_NODE":150.9336,"ARG_OF_PERICENTER":133.6947,"MEAN_ANOMALY":226.7171,"EPHEMERIS_TYPE":0,"CLASSIFICATION_TYPE":"U","NORAD_CAT_ID":36200,"ELEMENT_SET_NO":999,"REV_AT_EPOCH":74524,"BSTAR":0.0046906876,"MEAN_MOTION_DOT":0.00024046,"MEAN_MOTION_DDOT":0}]
